{"type": "FeatureCollection", "features": [{"type": "Feature", "properties": {"norad_id": 2807, "name": "OPS 7218 (TRANSIT 16)", "group": "nnss", "lat": -17.212744265198925, "lon": 174.09421681888017, "alt_km": 1073.0520242560187, "timestamp": "2025-12-13T10:41:26.034322+00:00", "meta": {"OBJECT_NAME": "OPS 7218 (TRANSIT 16)", "OBJECT_ID": "1967-048A", "EPOCH": "2025-12-13T01:05:44.276640", "MEAN_MOTION": 13.50722209, "ECCENTRICITY": 0.00219744, "INCLINATION": 89.6732, "RA_OF_ASC_NODE": 354.0061, "ARG_OF_PERICENTER": 113.2492, "MEAN_ANOMALY": 300.7433, "EPHEMERIS_TYPE": 0, "CLASSIFICATION_TYPE": "U", "NORAD_CAT_ID": 2807, "ELEMENT_SET_NO": 999, "REV_AT_EPOCH": 88280, "BSTAR": 0.00019026806, "MEAN_MOTION_DOT": 1.33e-06, "MEAN_MOTION_DDOT": 0}, "tle": {"line1": "1 02807U 67048A   25347.04565135  .00000133  00000+0  19027-3 0  9990", "line2": "2 02807  89.6732 354.0061 0021974 113.2492 300.7433 13.50722209882805"}}, "geometry": {"type": "Point", "coordinates": [174.09421681888017, -17.212744265198925]}}, {"type": "Feature", "properties": {"norad_id": 2965, "name": "OPS 4947 (TRANSIT 17)", "group": "nnss", "lat": -88.39642380028293, "lon": -127.70455598224517, "alt_km": 1039.255500038952, "timestamp": "2025-12-13T10:41:26.034345+00:00", "meta": {"OBJECT_NAME": "OPS 4947 (TRANSIT 17)", "OBJECT_ID": "1967-092A", "EPOCH": "2025-12-13T00:47:49.060608", "MEAN_MOTION": 13.53453547, "ECCENTRICITY": 0.00462025, "INCLINATION": 89.2496, "RA_OF_ASC_NODE": 24.4133, "ARG_OF_PERICENTER": 233.6286, "MEAN_ANOMALY": 187.2575, "EPHEMERIS_TYPE": 0, "CLASSIFICATION_TYPE": "U", "NORAD_CAT_ID": 2965, "ELEMENT_SET_NO": 999, "REV_AT_EPOCH": 87101, "BSTAR": 0.00024456166, "MEAN_MOTION_DOT": 1.76e-06, "MEAN_MOTION_DDOT": 0}, "tle": {"line1": "1 02965U 67092A   25347.03320672  .00000176  00000+0  24456-3 0  9997", "line2": "2 02965  89.2496  24.4133 0046202 233.6286 187.2575 13.53453547871015"}}, "geometry": {"type": "Point", "coordinates": [-127.70455598224517, -88.39642380028293]}}, {"type": "Feature", "properties": {"norad_id": 3133, "name": "OPS 7034 (TRANSIT 18)", "group": "nnss", "lat": 51.829422016783134, "lon": -86.39484101481659, "alt_km": 1084.8045961970265, "timestamp": "2025-12-13T10:41:26.034368+00:00", "meta": {"OBJECT_NAME": "OPS 7034 (TRANSIT 18)", "OBJECT_ID": "1968-012A", "EPOCH": "2025-12-12T18:34:59.666016", "MEAN_MOTION": 13.51565626, "ECCENTRICITY": 0.00738458, "INCLINATION": 90.028, "RA_OF_ASC_NODE": 273.6389, "ARG_OF_PERICENTER": 169.0091, "MEAN_ANOMALY": 220.0827, "EPHEMERIS_TYPE": 0, "CLASSIFICATION_TYPE": "U", "NORAD_CAT_ID": 3133, "ELEMENT_SET_NO": 999, "REV_AT_EPOCH": 56919, "BSTAR": 0.00023013624, "MEAN_MOTION_DOT": 1.62e-06, "MEAN_MOTION_DDOT": 0}, "tle": {"line1": "1 03133U 68012A   25346.77430169  .00000162  00000+0  23014-3 0  9995", "line2": "2 03133  90.0280 273.6389 0073845 169.0091 220.0827 13.51565626569193"}}, "geometry": {"type": "Point", "coordinates": [-86.39484101481659, 51.829422016783134]}}, {"type": "Feature", "properties": {"norad_id": 4507, "name": "NNSS 19 (TRANSIT 19)", "group": "nnss", "lat": 25.343361866512662, "lon": -125.46821543596516, "alt_km": 1073.5835578710548, "timestamp": "2025-12-13T10:41:26.034379+00:00", "meta": {"OBJECT_NAME": "NNSS 19 (TRANSIT 19)", "OBJECT_ID": "1970-067A", "EPOCH": "2025-12-12T22:07:35.652288", "MEAN_MOTION": 13.51315087, "ECCENTRICITY": 0.01705349, "INCLINATION": 90.0055, "RA_OF_ASC_NODE": 234.5341, "ARG_OF_PERICENTER": 292.8486, "MEAN_ANOMALY": 65.4735, "EPHEMERIS_TYPE": 0, "CLASSIFICATION_TYPE": "U", "NORAD_CAT_ID": 4507, "ELEMENT_SET_NO": 999, "REV_AT_EPOCH": 72224, "BSTAR": 0.00020428388, "MEAN_MOTION_DOT": 1.53e-06, "MEAN_MOTION_DDOT": 0}, "tle": {"line1": "1 04507U 70067A   25346.92194042  .00000153  00000+0  20428-3 0  9994", "line2": "2 04507  90.0055 234.5341 0170534 292.8486  65.4735 13.51315087722249"}}, "geometry": {"type": "Point", "coordinates": [-125.46821543596516, 25.343361866512662]}}, {"type": "Feature", "properties": {"norad_id": 6909, "name": "NNSS 20 (TRANSIT 20)", "group": "nnss", "lat": 31.00677385943393, "lon": 74.95709847168575, "alt_km": 956.7729785857146, "timestamp": "2025-12-13T10:41:26.034390+00:00", "meta": {"OBJECT_NAME": "NNSS 20 (TRANSIT 20)", "OBJECT_ID": "1973-081A", "EPOCH": "2025-12-12T18:13:27.129792", "MEAN_MOTION": 13.71434203, "ECCENTRICITY": 0.01566254, "INCLINATION": 89.8562, "RA_OF_ASC_NODE": 255.0539, "ARG_OF_PERICENTER": 78.2583, "MEAN_ANOMALY": 283.6104, "EPHEMERIS_TYPE": 0, "CLASSIFICATION_TYPE": "U", "NORAD_CAT_ID": 6909, "ELEMENT_SET_NO": 999, "REV_AT_EPOCH": 80361, "BSTAR": 0.00033300111, "MEAN_MOTION_DOT": 3.38e-06, "MEAN_MOTION_DDOT": 0}, "tle": {"line1": "1 06909U 73081A   25346.75934178  .00000338  00000+0  33300-3 0  9992", "line2": "2 06909  89.8562 255.0539 0156625  78.2583 283.6104 13.71434203803611"}}, "geometry": {"type": "Point", "coordinates": [74.95709847168575, 31.00677385943393]}}, {"type": "Feature", "properties": {"norad_id": 10457, "name": "TRANSAT", "group": "nnss", "lat": 22.284790536841214, "lon": 78.71633159937838, "alt_km": 1094.133300831807, "timestamp": "2025-12-13T10:41:26.034401+00:00", "meta": {"OBJECT_NAME": "TRANSAT", "OBJECT_ID": "1977-106A", "EPOCH": "2025-12-12T19:07:09.378048", "MEAN_MOTION": 13.48943636, "ECCENTRICITY": 0.00254046, "INCLINATION": 89.6481, "RA_OF_ASC_NODE": 78.595, "ARG_OF_PERICENTER": 189.2955, "MEAN_ANOMALY": 284.3192, "EPHEMERIS_TYPE": 0, "CLASSIFICATION_TYPE": "U", "NORAD_CAT_ID": 10457, "ELEMENT_SET_NO": 999, "REV_AT_EPOCH": 36744, "BSTAR": 0.0001644799, "MEAN_MOTION_DOT": 1.13e-06, "MEAN_MOTION_DDOT": 0}, "tle": {"line1": "1 10457U 77106A   25346.79663632  .00000113  00000+0  16448-3 0  9990", "line2": "2 10457  89.6481  78.5950 0025404 189.2955 284.3192 13.48943636367443"}}, "geometry": {"type": "Point", "coordinates": [78.71633159937838, 22.284790536841214]}}, {"type": "Feature", "properties": {"norad_id": 12458, "name": "NOVA 1", "group": "nnss", "lat": -39.13633059829511, "lon": -88.50481663856435, "alt_km": 1184.128613526933, "timestamp": "2025-12-13T10:41:26.034412+00:00", "meta": {"OBJECT_NAME": "NOVA 1", "OBJECT_ID": "1981-044A", "EPOCH": "2025-12-12T19:39:35.311680", "MEAN_MOTION": 13.23278553, "ECCENTRICITY": 0.00158913, "INCLINATION": 89.8524, "RA_OF_ASC_NODE": 91.3839, "ARG_OF_PERICENTER": 103.7954, "MEAN_ANOMALY": 13.3312, "EPHEMERIS_TYPE": 0, "CLASSIFICATION_TYPE": "U", "NORAD_CAT_ID": 12458, "ELEMENT_SET_NO": 999, "REV_AT_EPOCH": 15187, "BSTAR": 0.00020457654, "MEAN_MOTION_DOT": 9.6e-07, "MEAN_MOTION_DDOT": 0}, "tle": {"line1": "1 12458U 81044A   25346.81915870  .00000096  00000+0  20458-3 0  9992", "line2": "2 12458  89.8524  91.3839 0015891 103.7954  13.3312 13.23278553151878"}}, "geometry": {"type": "Point", "coordinates": [-88.50481663856435, -39.13633059829511]}}, {"type": "Feature", "properties": {"norad_id": 15362, "name": "NOVA 3", "group": "nnss", "lat": 88.72291418355904, "lon": -93.9593342013397, "alt_km": 1177.5537866734685, "timestamp": "2025-12-13T10:41:26.034423+00:00", "meta": {"OBJECT_NAME": "NOVA 3", "OBJECT_ID": "1984-110A", "EPOCH": "2025-12-12T23:36:45.288864", "MEAN_MOTION": 13.23044567, "ECCENTRICITY": 0.00304798, "INCLINATION": 90.1223, "RA_OF_ASC_NODE": 80.5376, "ARG_OF_PERICENTER": 331.2169, "MEAN_ANOMALY": 82.526, "EPHEMERIS_TYPE": 0, "CLASSIFICATION_TYPE": "U", "NORAD_CAT_ID": 15362, "ELEMENT_SET_NO": 999, "REV_AT_EPOCH": 98702, "BSTAR": 0.00019449485, "MEAN_MOTION_DOT": 9e-07, "MEAN_MOTION_DDOT": 0}, "tle": {"line1": "1 15362U 84110A   25346.98385751  .00000090  00000+0  19449-3 0  9995", "line2": "2 15362  90.1223  80.5376 0030479 331.2169  82.5260 13.23044567987027"}}, "geometry": {"type": "Point", "coordinates": [-93.9593342013397, 88.72291418355904]}}, {"type": "Feature", "properties": {"norad_id": 15935, "name": "OSCAR 30", "group": "nnss", "lat": -26.527493258394536, "lon": -80.22402670326768, "alt_km": 1200.1394608579612, "timestamp": "2025-12-13T10:41:26.034434+00:00", "meta": {"OBJECT_NAME": "OSCAR 30", "OBJECT_ID": "1985-066A", "EPOCH": "2025-12-12T19:52:13.418976", "MEAN_MOTION": 13.36078365, "ECCENTRICITY": 0.01693984, "INCLINATION": 90.1651, "RA_OF_ASC_NODE": 99.8484, "ARG_OF_PERICENTER": 83.6607, "MEAN_ANOMALY": 32.7559, "EPHEMERIS_TYPE": 0, "CLASSIFICATION_TYPE": "U", "NORAD_CAT_ID": 15935, "ELEMENT_SET_NO": 999, "REV_AT_EPOCH": 96454, "BSTAR": 0.00021973948, "MEAN_MOTION_DOT": 1.32e-06, "MEAN_MOTION_DDOT": 0}, "tle": {"line1": "1 15935U 85066A   25346.82793309  .00000132  00000+0  21974-3 0  9990", "line2": "2 15935  90.1651  99.8484 0169398  83.6607  32.7559 13.36078365964546"}}, "geometry": {"type": "Point", "coordinates": [-80.22402670326768, -26.527493258394536]}}, {"type": "Feature", "properties": {"norad_id": 15936, "name": "OSCAR 24", "group": "nnss", "lat": -80.60892840899025, "lon": 93.40082610340849, "alt_km": 1257.3840335870782, "timestamp": "2025-12-13T10:41:26.034444+00:00", "meta": {"OBJECT_NAME": "OSCAR 24", "OBJECT_ID": "1985-066B", "EPOCH": "2025-12-12T21:18:27.465696", "MEAN_MOTION": 13.35935799, "ECCENTRICITY": 0.01704639, "INCLINATION": 90.179, "RA_OF_ASC_NODE": 92.308, "ARG_OF_PERICENTER": 89.9247, "MEAN_ANOMALY": 29.6266, "EPHEMERIS_TYPE": 0, "CLASSIFICATION_TYPE": "U", "NORAD_CAT_ID": 15936, "ELEMENT_SET_NO": 999, "REV_AT_EPOCH": 96645, "BSTAR": 0.00018528556, "MEAN_MOTION_DOT": 1.13e-06, "MEAN_MOTION_DDOT": 0}, "tle": {"line1": "1 15936U 85066B   25346.88781789  .00000113  00000+0  18529-3 0  9997", "line2": "2 15936  90.1790  92.3080 0170463  89.9247  29.6266 13.35935799966459"}}, "geometry": {"type": "Point", "coordinates": [93.40082610340849, -80.60892840899025]}}]}